CCSDS_OMM_VERS = 2.0
CREATION_DATE  = 
ORIGINATOR     = 

OBJECT_NAME    = UNKNOWN
OBJECT_ID      = 
CENTER_NAME    = EARTH
REF_FRAME      = TEME
TIME_SYSTEM    = UTC
MEAN_ELEMENT_THEORY = SGP/SGP4

EPOCH          = 2025-12-02T05:45:25.771968
MEAN_MOTION    = 13.82545816
ECCENTRICITY   = .0565865
INCLINATION    = 65.7731
RA_OF_ASC_NODE = 55.9313
ARG_OF_PERICENTER = 312.7602
MEAN_ANOMALY   = 42.7143

EPHEMERIS_TYPE = 0
CLASSIFICATION_TYPE = U
NORAD_CAT_ID   = 81052
ELEMENT_SET_NO = 999
REV_AT_EPOCH   = 59886
BSTAR          = .19562E-2
MEAN_MOTION_DOT = .7352E-4
MEAN_MOTION_DDOT = 0

CCSDS_OMM_VERS = 2.0
CREATION_DATE  = 
ORIGINATOR     = 

OBJECT_NAME    = UNKNOWN
OBJECT_ID      = 
CENTER_NAME    = EARTH
REF_FRAME      = TEME
TIME_SYSTEM    = UTC
MEAN_ELEMENT_THEORY = SGP/SGP4

EPOCH          = 2025-12-04T10:55:48.691488
MEAN_MOTION    = 13.60420583
ECCENTRICITY   = .0065594
INCLINATION    = 100.3827
RA_OF_ASC_NODE = 239.0634
ARG_OF_PERICENTER = 61.9942
MEAN_ANOMALY   = 298.7812

EPHEMERIS_TYPE = 0
CLASSIFICATION_TYPE = U
NORAD_CAT_ID   = 81069
ELEMENT_SET_NO = 999
REV_AT_EPOCH   = 51480
BSTAR          = .8904E-2
MEAN_MOTION_DOT = .6741E-4
MEAN_MOTION_DDOT = 0

CCSDS_OMM_VERS = 2.0
CREATION_DATE  = 
ORIGINATOR     = 

OBJECT_NAME    = UNKNOWN
OBJECT_ID      = 
CENTER_NAME    = EARTH
REF_FRAME      = TEME
TIME_SYSTEM    = UTC
MEAN_ELEMENT_THEORY = SGP/SGP4

EPOCH          = 2025-11-19T21:46:52.452192
MEAN_MOTION    = 11.22438010
ECCENTRICITY   = .0179923
INCLINATION    = 65.1150
RA_OF_ASC_NODE = 295.2969
ARG_OF_PERICENTER = 6.6503
MEAN_ANOMALY   = 18.4737

EPHEMERIS_TYPE = 0
CLASSIFICATION_TYPE = U
NORAD_CAT_ID   = 81078
ELEMENT_SET_NO = 999
REV_AT_EPOCH   = 49206
BSTAR          = .34586E-2
MEAN_MOTION_DOT = .75E-6
MEAN_MOTION_DDOT = 0

CCSDS_OMM_VERS = 2.0
CREATION_DATE  = 
ORIGINATOR     = 

OBJECT_NAME    = UNKNOWN
OBJECT_ID      = 
CENTER_NAME    = EARTH
REF_FRAME      = TEME
TIME_SYSTEM    = UTC
MEAN_ELEMENT_THEORY = SGP/SGP4

EPOCH          = 2025-12-03T13:58:50.042496
MEAN_MOTION    = 7.54978884
ECCENTRICITY   = .386109
INCLINATION    = 62.8909
RA_OF_ASC_NODE = 27.8798
ARG_OF_PERICENTER = 356.8785
MEAN_ANOMALY   = 1.3096

EPHEMERIS_TYPE = 0
CLASSIFICATION_TYPE = U
NORAD_CAT_ID   = 81111
ELEMENT_SET_NO = 999
REV_AT_EPOCH   = 27125
BSTAR          = .34071E-2
MEAN_MOTION_DOT = .15576E-3
MEAN_MOTION_DDOT = 0

CCSDS_OMM_VERS = 2.0
CREATION_DATE  = 
ORIGINATOR     = 

OBJECT_NAME    = UNKNOWN
OBJECT_ID      = 
CENTER_NAME    = EARTH
REF_FRAME      = TEME
TIME_SYSTEM    = UTC
MEAN_ELEMENT_THEORY = SGP/SGP4

EPOCH          = 2025-12-03T19:26:31.721568
MEAN_MOTION    = 12.92973497
ECCENTRICITY   = .0026895
INCLINATION    = 90.2490
RA_OF_ASC_NODE = 3.8299
ARG_OF_PERICENTER = 55.5680
MEAN_ANOMALY   = 304.7975

EPHEMERIS_TYPE = 0
CLASSIFICATION_TYPE = U
NORAD_CAT_ID   = 81134
ELEMENT_SET_NO = 999
REV_AT_EPOCH   = 46145
BSTAR          = .8167E-3
MEAN_MOTION_DOT = .23E-5
MEAN_MOTION_DDOT = 0

CCSDS_OMM_VERS = 2.0
CREATION_DATE  = 
ORIGINATOR     = 

OBJECT_NAME    = UNKNOWN
OBJECT_ID      = 
CENTER_NAME    = EARTH
REF_FRAME      = TEME
TIME_SYSTEM    = UTC
MEAN_ELEMENT_THEORY = SGP/SGP4

EPOCH          = 2025-11-30T20:03:22.752000
MEAN_MOTION    = 13.75577551
ECCENTRICITY   = .006454
INCLINATION    = 100.4126
RA_OF_ASC_NODE = 175.7650
ARG_OF_PERICENTER = 313.8807
MEAN_ANOMALY   = 45.7019

EPHEMERIS_TYPE = 0
CLASSIFICATION_TYPE = U
NORAD_CAT_ID   = 81161
ELEMENT_SET_NO = 999
REV_AT_EPOCH   = 55449
BSTAR          = .17598E-2
MEAN_MOTION_DOT = .167E-4
MEAN_MOTION_DDOT = 0

CCSDS_OMM_VERS = 2.0
CREATION_DATE  = 
ORIGINATOR     = 

OBJECT_NAME    = UNKNOWN
OBJECT_ID      = 
CENTER_NAME    = EARTH
REF_FRAME      = TEME
TIME_SYSTEM    = UTC
MEAN_ELEMENT_THEORY = SGP/SGP4

EPOCH          = 2025-12-02T08:24:10.724832
MEAN_MOTION    = 13.81774219
ECCENTRICITY   = .002024
INCLINATION    = 82.9268
RA_OF_ASC_NODE = 13.9469
ARG_OF_PERICENTER = 242.2583
MEAN_ANOMALY   = 117.6525

EPHEMERIS_TYPE = 0
CLASSIFICATION_TYPE = U
NORAD_CAT_ID   = 81219
ELEMENT_SET_NO = 999
REV_AT_EPOCH   = 60608
BSTAR          = .41711E-3
MEAN_MOTION_DOT = .462E-5
MEAN_MOTION_DDOT = 0

CCSDS_OMM_VERS = 2.0
CREATION_DATE  = 
ORIGINATOR     = 

OBJECT_NAME    = UNKNOWN
OBJECT_ID      = 
CENTER_NAME    = EARTH
REF_FRAME      = TEME
TIME_SYSTEM    = UTC
MEAN_ELEMENT_THEORY = SGP/SGP4

EPOCH          = 2025-12-01T13:35:34.318752
MEAN_MOTION    = 14.40506455
ECCENTRICITY   = .0062608
INCLINATION    = 70.5213
RA_OF_ASC_NODE = 301.7974
ARG_OF_PERICENTER = 16.7122
MEAN_ANOMALY   = 343.6054

EPHEMERIS_TYPE = 0
CLASSIFICATION_TYPE = U
NORAD_CAT_ID   = 81228
ELEMENT_SET_NO = 999
REV_AT_EPOCH   = 62448
BSTAR          = .17567E-2
MEAN_MOTION_DOT = .5675E-4
MEAN_MOTION_DDOT = 0

CCSDS_OMM_VERS = 2.0
CREATION_DATE  = 
ORIGINATOR     = 

OBJECT_NAME    = UNKNOWN
OBJECT_ID      = 
CENTER_NAME    = EARTH
REF_FRAME      = TEME
TIME_SYSTEM    = UTC
MEAN_ELEMENT_THEORY = SGP/SGP4

EPOCH          = 2025-11-27T02:36:42.167232
MEAN_MOTION    = 14.01348438
ECCENTRICITY   = .0073442
INCLINATION    = 100.3871
RA_OF_ASC_NODE = 31.0558
ARG_OF_PERICENTER = 115.0050
MEAN_ANOMALY   = 245.8760

EPHEMERIS_TYPE = 0
CLASSIFICATION_TYPE = U
NORAD_CAT_ID   = 81254
ELEMENT_SET_NO = 999
REV_AT_EPOCH   = 61070
BSTAR          = .29584E-2
MEAN_MOTION_DOT = .4513E-4
MEAN_MOTION_DDOT = 0

CCSDS_OMM_VERS = 2.0
CREATION_DATE  = 
ORIGINATOR     = 

OBJECT_NAME    = UNKNOWN
OBJECT_ID      = 
CENTER_NAME    = EARTH
REF_FRAME      = TEME
TIME_SYSTEM    = UTC
MEAN_ELEMENT_THEORY = SGP/SGP4

EPOCH          = 2025-12-03T02:55:52.993632
MEAN_MOTION    = 14.19907371
ECCENTRICITY   = .0208106
INCLINATION    = 98.1311
RA_OF_ASC_NODE = 37.3211
ARG_OF_PERICENTER = 53.5492
MEAN_ANOMALY   = 308.4670

EPHEMERIS_TYPE = 0
CLASSIFICATION_TYPE = U
NORAD_CAT_ID   = 81279
ELEMENT_SET_NO = 999
REV_AT_EPOCH   = 46123
BSTAR          = .50605E-3
MEAN_MOTION_DOT = .1295E-4
MEAN_MOTION_DDOT = 0

CCSDS_OMM_VERS = 2.0
CREATION_DATE  = 
ORIGINATOR     = 

OBJECT_NAME    = UNKNOWN
OBJECT_ID      = 
CENTER_NAME    = EARTH
REF_FRAME      = TEME
TIME_SYSTEM    = UTC
MEAN_ELEMENT_THEORY = SGP/SGP4

EPOCH          = 2025-12-03T06:05:42.529344
MEAN_MOTION    = 13.76697113
ECCENTRICITY   = .0095236
INCLINATION    = 66.7593
RA_OF_ASC_NODE = 318.5271
ARG_OF_PERICENTER = 238.6823
MEAN_ANOMALY   = 139.6434

EPHEMERIS_TYPE = 0
CLASSIFICATION_TYPE = U
NORAD_CAT_ID   = 81301
ELEMENT_SET_NO = 999
REV_AT_EPOCH   = 60505
BSTAR          = .37859E-3
MEAN_MOTION_DOT = .31E-5
MEAN_MOTION_DDOT = 0

CCSDS_OMM_VERS = 2.0
CREATION_DATE  = 
ORIGINATOR     = 

OBJECT_NAME    = UNKNOWN
OBJECT_ID      = 
CENTER_NAME    = EARTH
REF_FRAME      = TEME
TIME_SYSTEM    = UTC
MEAN_ELEMENT_THEORY = SGP/SGP4

EPOCH          = 2025-11-30T02:33:35.570016
MEAN_MOTION    = 14.56504548
ECCENTRICITY   = .0131555
INCLINATION    = 98.7306
RA_OF_ASC_NODE = 30.7787
ARG_OF_PERICENTER = 162.9534
MEAN_ANOMALY   = 227.4580

EPHEMERIS_TYPE = 0
CLASSIFICATION_TYPE = U
NORAD_CAT_ID   = 81311
ELEMENT_SET_NO = 999
REV_AT_EPOCH   = 63775
BSTAR          = .18763E-3
MEAN_MOTION_DOT = .881E-5
MEAN_MOTION_DDOT = 0

