UNKNOWN                 
1 81052U          25336.23988162  .00007352  00000+0  19562-2 0  9995
2 81052  65.7731  55.9313 0565865 312.7602  42.7143 13.82545816598869
UNKNOWN                 
1 81069U          25338.45542467  .00006741  00000+0  89040-2 0  9992
2 81069 100.3827 239.0634 0065594  61.9942 298.7812 13.60420583514801
UNKNOWN                 
1 81078U          25323.90755153  .00000075  00000+0  34586-2 0  9993
2 81078  65.1150 295.2969 0179923   6.6503  18.4737 11.22438010492060
UNKNOWN                 
1 81111U          25337.58252364  .00015576  00000+0  34071-2 0  9997
2 81111  62.8909  27.8798 3861090 356.8785   1.3096  7.54978884271254
UNKNOWN                 
1 81134U          25337.81008937  .00000230  00000+0  81670-3 0  9992
2 81134  90.2490   3.8299 0026895  55.5680 304.7975 12.92973497461451
UNKNOWN                 
1 81161U          25334.83568000  .00001670  00000+0  17598-2 0  9999
2 81161 100.4126 175.7650 0064540 313.8807  45.7019 13.75577551554492
UNKNOWN                 
1 81219U          25336.35012413  .00000462  00000+0  41711-3 0  9997
2 81219  82.9268  13.9469 0020240 242.2583 117.6525 13.81774219606084
UNKNOWN                 
1 81228U          25335.56636943  .00005675  00000+0  17567-2 0  9991
2 81228  70.5213 301.7974 0062608  16.7122 343.6054 14.40506455624486
UNKNOWN                 
1 81254U          25331.10882138  .00004513  00000+0  29584-2 0  9997
2 81254 100.3871  31.0558 0073442 115.0050 245.8760 14.01348438610708
UNKNOWN                 
1 81279U          25337.12214113  .00001295  00000+0  50605-3 0  9997
2 81279  98.1311  37.3211 0208106  53.5492 308.4670 14.19907371461230
UNKNOWN                 
1 81301U          25337.25396446  .00000310  00000+0  37859-3 0  9990
2 81301  66.7593 318.5271 0095236 238.6823 139.6434 13.76697113605055
UNKNOWN                 
1 81311U          25334.10666169  .00000881  00000+0  18763-3 0  9990
2 81311  98.7306  30.7787 0131555 162.9534 227.4580 14.56504548637759
